GLOBALSTAR M094         
1 39074U 13005C   25247.91511977 -.00000068  00000+0  19838-3 0  9998
2 39074  51.9964 299.3723 0000684  97.9948 262.0997 12.62269561582446
GLOBALSTAR M096         
1 39075U 13005D   25247.53232170 -.00000084  00000+0  11195-3 0  9998
2 39075  52.0105 349.1120 0000848  92.5732 267.5232 12.62266416581318
GLOBALSTAR M078         
1 39076U 13005E   25247.82291859 -.00000092  00000+0  66352-4 0  9995
2 39076  51.9867  72.6285 0001169  35.6176 324.4768 12.62259997579971
GLOBALSTAR M095         
1 39077U 13005F   25247.69052462 -.00000085  00000+0  10489-3 0  9997
2 39077  52.0078  70.2294 0001220  65.1329 294.9665 12.62259884579813
GLOBALSTAR M087         
1 52888U 22064A   25247.62562740 -.00000102  00000+0  92003-5 0  9999
2 52888  51.9978 211.8368 0000576  53.4500 306.6420 12.62301207155079
